{
  "apiResult": [
    {
      "name": "Afghanistan",
      "flag": "ðŸ‡¦ðŸ‡«",
      "code": "AF",
      "dialCode": "+93",
      "continent": "Asia",
      "currencyCode": "AFN"
    },
    {
      "name": "Ã…land Islands",
      "flag": "ðŸ‡¦ðŸ‡½",
      "code": "AX",
      "dialCode": "+358",
      "continent": "Europe",
      "currencyCode": "EUR"
    },
    {
      "name": "Albania",
      "flag": "ðŸ‡¦ðŸ‡±",
      "code": "AL",
      "dialCode": "+355",
      "continent": "Europe",
      "currencyCode": "ALL"
    },
    {
      "name": "Algeria",
      "flag": "ðŸ‡©ðŸ‡¿",
      "code": "DZ",
      "dialCode": "+213",
      "continent": "Africa",
      "currencyCode": "DZD"
    },
    {
      "name": "American Samoa",
      "flag": "ðŸ‡¦ðŸ‡¸",
      "code": "AS",
      "dialCode": "+1684",
      "continent": "Oceania",
      "currencyCode": "USD"
    },
    {
      "name": "Andorra",
      "flag": "ðŸ‡¦ðŸ‡©",
      "code": "AD",
      "dialCode": "+376",
      "continent": "Europe",
      "currencyCode": "EUR"
    },
    {
      "name": "Angola",
      "flag": "ðŸ‡¦ðŸ‡´",
      "code": "AO",
      "dialCode": "+244",
      "continent": "Africa",
      "currencyCode": "AOA"
    },
    {
      "name": "Anguilla",
      "flag": "ðŸ‡¦ðŸ‡®",
      "code": "AI",
      "dialCode": "+1264",
      "continent": "North America",
      "currencyCode": "XCD"
    }
  ],
  "response": [
    {
      "name": "Afghanistan",
      "id": "AF"
    },
    {
      "name": "Ã…land Islands",
      "id": "AX"
    },
    {
      "name": "Albania",
      "id": "AL"
    },
    {
      "name": "Algeria",
      "id": "DZ"
    },
    {
      "name": "American Samoa",
      "id": "AS"
    },
    {
      "name": "Andorra",
      "id": "AD"
    },
    {
      "name": "Angola",
      "id": "AO"
    },
    {
      "name": "Anguilla",
      "id": "AI"
    }
  ]
}